{"type": "FeatureCollection", "features": [ {"type": "Feature", "properties": {"norad_id": 40802, "name": "COSMOS 2251 DEB", "group": "cosmos-2251-debris", "lat": 59.567393145843155, "lon": -79.17526676034741, "alt_km": 645.3599580308855, "timestamp": "2025-12-24T11:33:00.417220+00:00", "meta": {"OBJECT_NAME": "COSMOS 2251 DEB", "OBJECT_ID": "1993-036BWF", "EPOCH": "2025-12-23T15:31:23.351520", "MEAN_MOTION": 14.77722867, "ECCENTRICITY": 0.00628376, "INCLINATION": 74.0411, "RA_OF_ASC_NODE": 131.6125, "ARG_OF_PERICENTER": 228.2814, "MEAN_ANOMALY": 131.2977, "EPHEMERIS_TYPE": 0, "CLASSIFICATION_TYPE": "U", "NORAD_CAT_ID": 40802, "ELEMENT_SET_NO": 999, "REV_AT_EPOCH": 64570, "BSTAR": 0.00086100359, "MEAN_MOTION_DOT": 6.349e-05, "MEAN_MOTION_DDOT": 0}, "tle": {"line1": "1 40802U 93036BWF 25357.64679805  .00006349  00000+0  86100-3 0  9991", "line2": "2 40802  74.0411 131.6125 0062837 228.2814 131.2977 14.77722867645708"}}, "geometry": {"type": "Point", "coordinates": [-79.17526676034741, 59.567393145843155]}}, {"type": "Feature", "properties": {"norad_id": 40803, "name": "COSMOS 2251 DEB", "group": "cosmos-2251-debris", "lat": -49.22014787334419, "lon": 10.347154038295246, "alt_km": 715.302882396255, "timestamp": "2025-12-24T11:33:00.417230+00:00", "meta": {"OBJECT_NAME": "COSMOS 2251 DEB", "OBJECT_ID": "1993-036BWG", "EPOCH": "2025-12-21T09:22:13.076832", "MEAN_MOTION": 14.51837554, "ECCENTRICITY": 0.00343739, "INCLINATION": 74.0142, "RA_OF_ASC_NODE": 35.5847, "ARG_OF_PERICENTER": 250.91, "MEAN_ANOMALY": 108.8338, "EPHEMERIS_TYPE": 0, "CLASSIFICATION_TYPE": "U", "NORAD_CAT_ID": 40803, "ELEMENT_SET_NO": 999, "REV_AT_EPOCH": 58878, "BSTAR": 0.0002337407, "MEAN_MOTION_DOT": 9.19e-06, "MEAN_MOTION_DDOT": 0}, "tle": {"line1": "1 40803U 93036BWG 25355.39042913  .00000919  00000+0  23374-3 0  9997", "line2": "2 40803  74.0142  35.5847 0034373 250.9100 108.8338 14.51837554588784"}}, "geometry": {"type": "Point", "coordinates": [10.347154038295246, -49.22014787334419]}}, {"type": "Feature", "properties": {"norad_id": 40808, "name": "COSMOS 2251 DEB", "group": "cosmos-2251-debris", "lat": 11.818065087217986, "lon": -60.6273294314576, "alt_km": 663.6930624449187, "timestamp": "2025-12-24T11:33:00.417240+00:00", "meta": {"OBJECT_NAME": "COSMOS 2251 DEB", "OBJECT_ID": "1993-036BWM", "EPOCH": "2025-12-21T15:48:05.753088", "MEAN_MOTION": 14.67620191, "ECCENTRICITY": 0.00084034, "INCLINATION": 74.0423, "RA_OF_ASC_NODE": 128.2531, "ARG_OF_PERICENTER": 163.7615, "MEAN_ANOMALY": 215.4081, "EPHEMERIS_TYPE": 0, "CLASSIFICATION_TYPE": "U", "NORAD_CAT_ID": 40808, "ELEMENT_SET_NO": 999, "REV_AT_EPOCH": 63750, "BSTAR": 0.0013228625, "MEAN_MOTION_DOT": 7.499e-05, "MEAN_MOTION_DDOT": 0}, "tle": {"line1": "1 40808U 93036BWM 25355.65839992  .00007499  00000+0  13229-2 0  9999", "line2": "2 40808  74.0423 128.2531 0008403 163.7615 215.4081 14.67620191637507"}}, "geometry": {"type": "Point", "coordinates": [-60.6273294314576, 11.818065087217986]}}, {"type": "Feature", "properties": {"norad_id": 40810, "name": "COSMOS 2251 DEB", "group": "cosmos-2251-debris", "lat": 66.31901207982257, "lon": 93.12120331966959, "alt_km": 698.5767482298716, "timestamp": "2025-12-24T11:33:00.417251+00:00", "meta": {"OBJECT_NAME": "COSMOS 2251 DEB", "OBJECT_ID": "1993-036BWP", "EPOCH": "2025-12-23T03:56:49.945344", "MEAN_MOTION": 14.58782513, "ECCENTRICITY": 0.00180471, "INCLINATION": 74.0361, "RA_OF_ASC_NODE": 54.8832, "ARG_OF_PERICENTER": 205.863, "MEAN_ANOMALY": 154.1635, "EPHEMERIS_TYPE": 0, "CLASSIFICATION_TYPE": "U", "NORAD_CAT_ID": 40810, "ELEMENT_SET_NO": 999, "REV_AT_EPOCH": 61835, "BSTAR": 0.0007215593, "MEAN_MOTION_DOT": 3.351e-05, "MEAN_MOTION_DDOT": 0}, "tle": {"line1": "1 40810U 93036BWP 25357.16446696  .00003351  00000+0  72156-3 0  9993", "line2": "2 40810  74.0361  54.8832 0018047 205.8630 154.1635 14.58782513618352"}}, "geometry": {"type": "Point", "coordinates": [93.12120331966959, 66.31901207982257]}}, {"type": "Feature", "properties": {"norad_id": 46271, "name": "COSMOS 2251 DEB", "group": "cosmos-2251-debris", "lat": 2.7198983624697544, "lon": 56.90817369387527, "alt_km": 751.0673859359349, "timestamp": "2025-12-24T11:33:00.417262+00:00", "meta": {"OBJECT_NAME": "COSMOS 2251 DEB", "OBJECT_ID": "1993-036BWT", "EPOCH": "2025-12-23T10:43:26.670144", "MEAN_MOTION": 14.51452008, "ECCENTRICITY": 0.00396452, "INCLINATION": 74.0466, "RA_OF_ASC_NODE": 58.0745, "ARG_OF_PERICENTER": 177.4947, "MEAN_ANOMALY": 182.6421, "EPHEMERIS_TYPE": 0, "CLASSIFICATION_TYPE": "U", "NORAD_CAT_ID": 46271, "ELEMENT_SET_NO": 999, "REV_AT_EPOCH": 84797, "BSTAR": 0.00025039909, "MEAN_MOTION_DOT": 9.82e-06, "MEAN_MOTION_DDOT": 0}, "tle": {"line1": "1 46271U 93036BWT 25357.44683646  .00000982  00000+0  25040-3 0  9996", "line2": "2 46271  74.0466  58.0745 0039645 177.4947 182.6421 14.51452008847973"}}, "geometry": {"type": "Point", "coordinates": [56.90817369387527, 2.7198983624697544]}}, {"type": "Feature", "properties": {"norad_id": 46430, "name": "COSMOS 2251 DEB", "group": "cosmos-2251-debris", "lat": 61.130217407374175, "lon": 5.636918591817487, "alt_km": 787.113794912997, "timestamp": "2025-12-24T11:33:00.417272+00:00", "meta": {"OBJECT_NAME": "COSMOS 2251 DEB", "OBJECT_ID": "1993-036BWU", "EPOCH": "2025-12-22T16:14:06.887040", "MEAN_MOTION": 14.51442901, "ECCENTRICITY": 0.01029275, "INCLINATION": 73.9145, "RA_OF_ASC_NODE": 337.5005, "ARG_OF_PERICENTER": 256.0795, "MEAN_ANOMALY": 102.8901, "EPHEMERIS_TYPE": 0, "CLASSIFICATION_TYPE": "U", "NORAD_CAT_ID": 46430, "ELEMENT_SET_NO": 999, "REV_AT_EPOCH": 79827, "BSTAR": 0.0019695835, "MEAN_MOTION_DOT": 8.403e-05, "MEAN_MOTION_DDOT": 0}, "tle": {"line1": "1 46430U 93036BWU 25356.67646860  .00008403  00000+0  19696-2 0  9999", "line2": "2 46430  73.9145 337.5005 0102927 256.0795 102.8901 14.51442901798271"}}, "geometry": {"type": "Point", "coordinates": [5.636918591817487, 61.130217407374175]}}, {"type": "Feature", "properties": {"norad_id": 46432, "name": "COSMOS 2251 DEB", "group": "cosmos-2251-debris", "lat": 26.11389696177877, "lon": 100.94736647251409, "alt_km": 1475.7397958863448, "timestamp": "2025-12-24T11:33:00.417283+00:00", "meta": {"OBJECT_NAME": "COSMOS 2251 DEB", "OBJECT_ID": "1993-036BWW", "EPOCH": "2025-12-22T01:03:47.474208", "MEAN_MOTION": 13.36654939, "ECCENTRICITY": 0.04738658, "INCLINATION": 73.8725, "RA_OF_ASC_NODE": 96.6323, "ARG_OF_PERICENTER": 212.6525, "MEAN_ANOMALY": 332.3153, "EPHEMERIS_TYPE": 0, "CLASSIFICATION_TYPE": "U", "NORAD_CAT_ID": 46432, "ELEMENT_SET_NO": 999, "REV_AT_EPOCH": 67090, "BSTAR": 0.00093620994, "MEAN_MOTION_DOT": 9e-06, "MEAN_MOTION_DDOT": 0}, "tle": {"line1": "1 46432U 93036BWW 25356.04429947  .00000900  00000+0  93621-3 0  9992", "line2": "2 46432  73.8725  96.6323 0473865 212.6525 332.3153 13.36654939670909"}}, "geometry": {"type": "Point", "coordinates": [100.94736647251409, 26.11389696177877]}}, {"type": "Feature", "properties": {"norad_id": 47045, "name": "COSMOS 2251 DEB", "group": "cosmos-2251-debris", "lat": 64.07398671660194, "lon": 163.5527973572973, "alt_km": 776.2348151016595, "timestamp": "2025-12-24T11:33:00.417294+00:00", "meta": {"OBJECT_NAME": "COSMOS 2251 DEB", "OBJECT_ID": "1993-036BWZ", "EPOCH": "2025-12-22T15:55:55.342272", "MEAN_MOTION": 14.38905258, "ECCENTRICITY": 0.00303733, "INCLINATION": 74.058, "RA_OF_ASC_NODE": 130.8857, "ARG_OF_PERICENTER": 270.255, "MEAN_ANOMALY": 108.4261, "EPHEMERIS_TYPE": 0, "CLASSIFICATION_TYPE": "U", "NORAD_CAT_ID": 47045, "ELEMENT_SET_NO": 999, "REV_AT_EPOCH": 7948, "BSTAR": 8.0309913e-05, "MEAN_MOTION_DOT": 2.22e-06, "MEAN_MOTION_DDOT": 0}, "tle": {"line1": "1 47045U 93036BWZ 25356.66383498  .00000222  00000+0  80310-4 0  9990", "line2": "2 47045  74.0580 130.8857 0030373 270.2550 108.4261 14.38905258 79480"}}, "geometry": {"type": "Point", "coordinates": [163.5527973572973, 64.07398671660194]}}, {"type": "Feature", "properties": {"norad_id": 47048, "name": "COSMOS 2251 DEB", "group": "cosmos-2251-debris", "lat": -23.95136536670062, "lon": 124.30222753742446, "alt_km": 710.3199820032514, "timestamp": "2025-12-24T11:33:00.417304+00:00", "meta": {"OBJECT_NAME": "COSMOS 2251 DEB", "OBJECT_ID": "1993-036BXC", "EPOCH": "2025-12-21T05:13:53.078880", "MEAN_MOTION": 14.5236804, "ECCENTRICITY": 0.013255, "INCLINATION": 73.9787, "RA_OF_ASC_NODE": 303.1415, "ARG_OF_PERICENTER": 128.8028, "MEAN_ANOMALY": 299.2168, "EPHEMERIS_TYPE": 0, "CLASSIFICATION_TYPE": "U", "NORAD_CAT_ID": 47048, "ELEMENT_SET_NO": 999, "REV_AT_EPOCH": 59813, "BSTAR": 0.00086716, "MEAN_MOTION_DOT": 3.933e-05, "MEAN_MOTION_DDOT": 0}, "tle": {"line1": "1 47048U 93036BXC 25355.21797545  .00003933  00000+0  86716-3 0  9992", "line2": "2 47048  73.9787 303.1415 0132550 128.8028 299.2168 14.52368040598134"}}, "geometry": {"type": "Point", "coordinates": [124.30222753742446, -23.95136536670062]}}, {"type": "Feature", "properties": {"norad_id": 47051, "name": "COSMOS 2251 DEB", "group": "cosmos-2251-debris", "lat": 14.669979776136508, "lon": -19.874100372615228, "alt_km": 1091.2883116998055, "timestamp": "2025-12-24T11:33:00.417315+00:00", "meta": {"OBJECT_NAME": "COSMOS 2251 DEB", "OBJECT_ID": "1993-036BXF", "EPOCH": "2025-12-13T06:55:53.868288", "MEAN_MOTION": 13.67117141, "ECCENTRICITY": 0.03401033, "INCLINATION": 74.1001, "RA_OF_ASC_NODE": 182.6908, "ARG_OF_PERICENTER": 296.1774, "MEAN_ANOMALY": 246.9893, "EPHEMERIS_TYPE": 0, "CLASSIFICATION_TYPE": "U", "NORAD_CAT_ID": 47051, "ELEMENT_SET_NO": 999, "REV_AT_EPOCH": 59945, "BSTAR": 0.0019326179, "MEAN_MOTION_DOT": 2.391e-05, "MEAN_MOTION_DDOT": 0}, "tle": {"line1": "1 47051U 93036BXF 25347.28881792  .00002391  00000+0  19326-2 0  9991", "line2": "2 47051  74.1001 182.6908 0340103 296.1774 246.9893 13.67117141599458"}}, "geometry": {"type": "Point", "coordinates": [-19.874100372615228, 14.669979776136508]}}]}